{
  "type": "FeatureCollection",
  "features": [
    {
      "type": "Feature",
      "properties": {
        "name": "laz_coverage"
      },
      "geometry": {
        "type": "Polygon",
        "coordinates": [
          [
            [
              -3.8407736451622254,
              37.81840574902054
            ],
            [
              -3.6703586383501685,
              37.81949891628957
            ],
            [
              -3.669383114905645,
              37.71134720528763
            ],
            [
              -3.839550193184105,
              37.710258265064994
            ],
            [
              -3.8407736451622254,
              37.81840574902054
            ]
          ]
        ]
      }
    }
  ]
}