{
  "type": "FeatureCollection",
  "features": [
    {
      "type": "Feature",
      "properties": {
        "name": "laz_coverage"
      },
      "geometry": {
        "type": "Polygon",
        "coordinates": [
          [
            [
              -0.957054083451122,
              41.69563257053829
            ],
            [
              -0.8729874988412205,
              41.6941067703494
            ],
            [
              -0.8750609083719683,
              41.631099869778005
            ],
            [
              -0.9590456865831363,
              41.63262231727675
            ],
            [
              -0.957054083451122,
              41.69563257053829
            ]
          ]
        ]
      }
    }
  ]
}