{
  "type": "FeatureCollection",
  "features": [
    {
      "type": "Feature",
      "properties": {
        "name": "laz_coverage"
      },
      "geometry": {
        "type": "Polygon",
        "coordinates": [
          [
            [
              -0.9922441550061205,
              41.723272430046705
            ],
            [
              -0.8360552880471943,
              41.72043613153716
            ],
            [
              -0.8399710079462462,
              41.60342606142227
            ],
            [
              -0.9958777263054592,
              41.60625079657945
            ],
            [
              -0.9922441550061205,
              41.723272430046705
            ]
          ]
        ]
      }
    }
  ]
}