{
  "type": "FeatureCollection",
  "features": [
    {
      "type": "Feature",
      "properties": {
        "name": "laz_coverage"
      },
      "geometry": {
        "type": "Polygon",
        "coordinates": [
          [
            [
              -3.673068400128433,
              38.116905738968484
            ],
            [
              -3.6046244805938996,
              38.1172779143911
            ],
            [
              -3.604253347341859,
              38.0722166559615
            ],
            [
              -3.6726552616598496,
              38.07184507907401
            ],
            [
              -3.673068400128433,
              38.116905738968484
            ]
          ]
        ]
      }
    }
  ]
}